STARLINK-31198          
1 58867U 24019Q   26068.48751045  .00000092  00000+0  12875-4 0  9993
2 58867  43.0012 249.8639 0001199 269.7146  90.3568 15.27578083119033
STARLINK-36554          
1 67502U 26012K   26067.71268370  .00032833  00000+0  11969-2 0  9992
2 67502  42.9934 319.8184 0000695 339.2059  20.8765 15.27591469  7619
